0 OPS 4682 DEB
1 38434U 65027EP  13282.66088543 -.00000149  00000-0 -56764-3 0  1469
2 38434 090.2791 247.6104 0035247 116.1954 244.2795 12.93623453538506
0 OPS 4682 DEB
1 38434U 65027EP  13283.66638218 -.00000111  00000-0 -42960-3 0  1473
2 38434 090.2791 247.6359 0035377 113.6135 246.8704 12.93623565538631
0 OPS 4682 DEB
1 38434U 65027EP  13286.21879085  .00000462  00000-0  16478-2 0  1499
2 38434 090.2796 247.7008 0035723 107.0386 253.4651 12.93619924538963
0 OPS 4682 DEB
1 38434U 65027EP  13288.15243778  .00000724  00000-0  25993-2 0  1503
2 38434 090.2800 247.7499 0035974 102.1076 258.4077 12.93620052539213
0 OPS 4682 DEB
1 38434U 65027EP  13289.15793582  .00000557  00000-0  19952-2 0  1510
2 38434 090.2803 247.7755 0036098 099.5619 260.9581 12.93623003539342
0 OPS 4682 DEB
1 38434U 65027EP  13291.16892864  .00000105  00000-0  35283-3 0  1523
2 38434 090.2806 247.8267 0036374 094.4973 266.0302 12.93629213539604
0 OPS 4682 DEB
1 38434U 65027EP  13292.87052896  .00000046  00000-0  14025-3 0  1531
2 38434 090.2807 247.8704 0036592 090.2020 270.3291 12.93631309539828
0 OPS 4682 DEB
1 38434U 65027EP  13294.34008715  .00000297  00000-0  10516-2 0  1545
2 38434 090.2806 247.9082 0036788 086.5409 273.9916 12.93629687540015
0 OPS 4682 DEB
1 38434U 65027EP  13296.11902461  .00000735  00000-0  26390-2 0  1558
2 38434 090.2804 247.9538 0036956 082.1381 278.3930 12.93627787540246
